{
  "norad_id": 68702,
  "name": "STARLINK-36275",
  "history": [
    {
      "epoch": "2026-04-23T14:08:49.110720Z",
      "apogee_km": 320.78478930841993,
      "perigee_km": 320.3483017853914,
      "latitude_deg": 4.942274195297337e-05,
      "longitude_deg": 132.0590917285274,
      "height_km": 321.4426521458526,
      "semi_major_axis_km": 6698.703545546905,
      "eccentricity": 3.258e-05,
      "inclination_deg": 53.1605,
      "raan_deg": 195.8982,
      "arg_perigee_deg": 78.3861,
      "mean_anomaly_deg": 281.72,
      "mean_motion_rev_day": 15.83494738
    }
  ]
}