STARLINK-36275          
1 68702U 26081D   26113.58945730 -.00536880  00000+0 -25546-2 0  9999
2 68702  53.1605 195.8982 0000325  78.3861 281.7200 15.83494738  1474
